[{"OBJECT_NAME":"ICEYE-X7","OBJECT_ID":"2020-068L","EPOCH":"2026-03-09T22:52:28.702272","MEAN_MOTION":15.29152508,"ECCENTRICITY":0.00068409,"INCLINATION":97.7412,"RA_OF_ASC_NODE":31.2076,"ARG_OF_PERICENTER":332.3045,"MEAN_ANOMALY":27.7829,"EPHEMERIS_TYPE":0,"CLASSIFICATION_TYPE":"U","NORAD_CAT_ID":46496,"ELEMENT_SET_NO":999,"REV_AT_EPOCH":29961,"BSTAR":0.0005654802,"MEAN_MOTION_DOT":0.00015947,"MEAN_MOTION_DDOT":0},{"OBJECT_NAME":"STARLINK-3675","OBJECT_ID":"2022-025H","EPOCH":"2026-03-09T04:04:59.875680","MEAN_MOTION":15.30188338,"ECCENTRICITY":0.00013782,"INCLINATION":53.1619,"RA_OF_ASC_NODE":15.9713,"ARG_OF_PERICENTER":90.338,"MEAN_ANOMALY":269.7779,"EPHEMERIS_TYPE":0,"CLASSIFICATION_TYPE":"U","NORAD_CAT_ID":51963,"ELEMENT_SET_NO":999,"REV_AT_EPOCH":22109,"BSTAR":-0.00010047767,"MEAN_MOTION_DOT":-3.333e-5,"MEAN_MOTION_DDOT":0}]
